TIANMU-1 20             
1 58661U 23208B   26183.59998714  .00008852  00000+0  28009-3 0  9997
2 58661  97.4465 300.6327 0005593 265.4630  94.5973 15.32996336139784
TIANMU-1 21             
1 58662U 23208C   26183.56493830  .00009801  00000+0  28765-3 0  9998
2 58662  97.4525 303.3450 0005769 255.6996 104.3607 15.35350522139924
TIANMU-1 22             
1 58663U 23208D   26183.56119706  .00007977  00000+0  26665-3 0  9995
2 58663  97.4519 299.8651 0002183 288.1457  71.9547 15.31272501139681
TIANMU-1 15             
1 58700U 24004A   26182.84348373  .00008429  00000+0  32265-3 0  9992
2 58700  97.4664   9.0340 0005689 288.6642  71.3979 15.26798099138013
TIANMU-1 16             
1 58701U 24004B   26183.62026010  .00005902  00000+0  22613-3 0  9990
2 58701  97.4613   9.0344 0004493 306.0940  53.9882 15.26905258138139
TIANMU-1 17             
1 58702U 24004C   26183.60572682  .00006132  00000+0  23485-3 0  9994
2 58702  97.4641   9.5104 0004100 314.2426  45.8475 15.26903535138128
TIANMU-1 18             
1 58703U 24004D   26183.64666124  .00006001  00000+0  23050-3 0  9997
2 58703  97.4658   9.8128 0003408 288.2324  71.8544 15.26822650138138
INSAT-3DS               
1 58990U 24033A   26183.38496356 -.00000144  00000+0  00000+0 0  9995
2 58990   0.0716  96.8706 0001431 355.3676  48.8097  1.00269425 47227
METEOR-M2 4             
1 59051U 24039A   26183.58833083  .00000017  00000+0  27372-4 0  9998
2 59051  98.7018 142.6933 0008030 120.2398 239.9576 14.22431088121456
GOES 19                 
1 60133U 24119A   26183.56768634 -.00000238  00000+0  00000+0 0  9997
2 60133   0.0126  77.9489 0000538  80.1000 251.7333  1.00271173  7118
MTG-S1                  
1 64723U 25143A   26183.29731233  .00000003  00000+0  00000+0 0  9998
2 64723   0.5917 342.1375 0002909 264.7264 140.0482  1.00271232  3574
METOP-SGA1              
1 65159U 25172A   26183.57290477  .00000063  00000+0  49889-4 0  9994
2 65159  98.6637 242.9750 0007790   9.7032 350.4294 14.19817578 45973
FENGYUN 3H              
1 65815U 25219A   26183.54361166  .00000063  00000+0  49937-4 0  9990
2 65815  98.6770 124.0143 0001394  66.2166 293.9157 14.19923059 39565
