OBJECT_NAME,OBJECT_ID,EPOCH,MEAN_MOTION,ECCENTRICITY,INCLINATION,RA_OF_ASC_NODE,ARG_OF_PERICENTER,MEAN_ANOMALY,EPHEMERIS_TYPE,CLASSIFICATION_TYPE,NORAD_CAT_ID,ELEMENT_SET_NO,REV_AT_EPOCH,BSTAR,MEAN_MOTION_DOT,MEAN_MOTION_DDOT
TIANMU-1 20,2023-208B,2026-07-02T14:23:58.888896,15.32996336,.00055934,97.4465,300.6327,265.4630,94.5973,0,U,58661,999,13978,.28009039E-3,.8852E-4,0
TIANMU-1 21,2023-208C,2026-07-02T13:33:30.669120,15.35350522,.00057691,97.4525,303.3450,255.6996,104.3607,0,U,58662,999,13992,.28764674E-3,.9801E-4,0
TIANMU-1 22,2023-208D,2026-07-02T13:28:07.425984,15.31272501,.00021837,97.4519,299.8651,288.1457,71.9547,0,U,58663,999,13968,.26665442E-3,.7977E-4,0
TIANMU-1 15,2024-004A,2026-07-01T20:14:36.994272,15.26798099,.00056891,97.4664,9.0340,288.6642,71.3979,0,U,58700,999,13801,.32265143E-3,.8429E-4,0
TIANMU-1 16,2024-004B,2026-07-02T14:53:10.472640,15.26905258,.00044939,97.4613,9.0344,306.0940,53.9882,0,U,58701,999,13813,.22612665E-3,.5902E-4,0
TIANMU-1 17,2024-004C,2026-07-02T14:32:14.797248,15.26903535,.00041009,97.4641,9.5104,314.2426,45.8475,0,U,58702,999,13812,.23484917E-3,.6132E-4,0
TIANMU-1 18,2024-004D,2026-07-02T15:31:11.531136,15.26822650,.00034089,97.4658,9.8128,288.2324,71.8544,0,U,58703,999,13813,.23049503E-3,.6001E-4,0
INSAT-3DS,2024-033A,2026-07-02T09:14:20.851584,1.00269425,.00014311,0.0716,96.8706,355.3676,48.8097,0,U,58990,999,4722,0,-.144E-5,0
METEOR-M2 4,2024-039A,2026-07-02T14:07:11.783712,14.22431088,.00080304,98.7018,142.6933,120.2398,239.9576,0,U,59051,999,12145,.27372366E-4,.17E-6,0
GOES 19,2024-119A,2026-07-02T13:37:28.099776,1.00271173,.0000538,0.0126,77.9489,80.1000,251.7333,0,U,60133,999,711,0,-.238E-5,0
MTG-S1,2025-143A,2026-07-02T07:08:07.785312,1.00271232,.00029092,0.5917,342.1375,264.7264,140.0482,0,U,64723,999,357,0,.3E-7,0
METOP-SGA1,2025-172A,2026-07-02T13:44:58.972128,14.19817578,.00077907,98.6637,242.9750,9.7032,350.4294,0,U,65159,999,4597,.49888501E-4,.63E-6,0
FENGYUN 3H,2025-219A,2026-07-02T13:02:48.047424,14.19923059,.00013943,98.6770,124.0143,66.2166,293.9157,0,U,65815,999,3956,.49937073E-4,.63E-6,0
